IRIDIUM 7               
1 24793U 97020B   24272.96262813  .00001063  00000+0  36335-3 0  9999
2 24793  86.3901 286.3567 0002006  92.5827 267.5599 14.35445791434414
IRIDIUM 5               
1 24795U 97020D   24272.87254769  .00016170  00000+0  14774-2 0  9999
2 24795  86.3961 203.7273 0117940 355.3186   4.6925 14.89698914446491
IRIDIUM 4               
1 24796U 97020E   24272.76322545  .00001017  00000+0  34106-3 0  9992
2 24796  86.3897 283.4861 0002209  88.1028 272.0422 14.36370535434932
IRIDIUM 914             
1 24836U 97030A   24272.79309455  .00001206  00000+0  37495-3 0  9990
2 24836  86.3885 292.8653 0002927  54.8408 305.3065 14.40271151569498
IRIDIUM 16              
1 24841U 97030F   24272.85116655  .00001102  00000+0  35703-3 0  9996
2 24841  86.4025 315.1027 0002527 146.9115 213.2241 14.38168668429436
IRIDIUM 911             
1 24842U 97030G   24272.84828800  .00001488  00000+0  40463-3 0  9994
2 24842  86.4448 314.1363 0012202 244.8096 115.1842 14.46892303437283
IRIDIUM 17              
1 24870U 97034B   24272.67670142  .00001166  00000+0  38498-3 0  9992
2 24870  86.4008 344.7411 0003383 118.2910 241.8629 14.37276647426014
IRIDIUM 920             
1 24871U 97034C   24272.90495998  .00001097  00000+0  33537-3 0  9995
2 24871  86.3985 324.4858 0010219 214.6281 145.4254 14.40975296428943
